STARLINK-1821_new
1 16718C 20073BA  21326.13384330  .00002289  00000-0  15332-3 0  3269
2 16718  53.0543  98.1521 0001394  89.7138 198.8309 15.06405102    10
STARLINK-1821_old
1 26718C 20073BA  21325.16197031  .00001769  00000-0  11853-3 0  3256
2 26718  53.0544 102.5146 0001430  88.8808 326.2344 15.06398189    11
